CCSDS_OMM_VERS = 2.0
CREATION_DATE  = 
ORIGINATOR     = 

OBJECT_NAME    = COSMOS 1933
OBJECT_ID      = 1988-020A
CENTER_NAME    = EARTH
REF_FRAME      = TEME
TIME_SYSTEM    = UTC
MEAN_ELEMENT_THEORY = SGP/SGP4

EPOCH          = 2026-02-18T01:53:55.523904
MEAN_MOTION    = 15.17806127
ECCENTRICITY   = .0002707
INCLINATION    = 82.5105
RA_OF_ASC_NODE = 270.3168
ARG_OF_PERICENTER = 270.1793
MEAN_ANOMALY   = 89.9130

EPHEMERIS_TYPE = 0
CLASSIFICATION_TYPE = U
NORAD_CAT_ID   = 18958
ELEMENT_SET_NO = 999
REV_AT_EPOCH   = 4725
BSTAR          = .19314832E-3
MEAN_MOTION_DOT = .3934E-4
MEAN_MOTION_DDOT = 0

CCSDS_OMM_VERS = 2.0
CREATION_DATE  = 
ORIGINATOR     = 

OBJECT_NAME    = SL-3 R/B
OBJECT_ID      = 1988-032B
CENTER_NAME    = EARTH
REF_FRAME      = TEME
TIME_SYSTEM    = UTC
MEAN_ELEMENT_THEORY = SGP/SGP4

EPOCH          = 2026-02-18T05:50:45.227328
MEAN_MOTION    = 15.19653317
ECCENTRICITY   = .00244956
INCLINATION    = 97.5161
RA_OF_ASC_NODE = 32.5714
ARG_OF_PERICENTER = 304.5863
MEAN_ANOMALY   = 55.3061

EPHEMERIS_TYPE = 0
CLASSIFICATION_TYPE = U
NORAD_CAT_ID   = 19046
ELEMENT_SET_NO = 999
REV_AT_EPOCH   = 4915
BSTAR          = .26767667E-3
MEAN_MOTION_DOT = .5682E-4
MEAN_MOTION_DDOT = 0

CCSDS_OMM_VERS = 2.0
CREATION_DATE  = 
ORIGINATOR     = 

OBJECT_NAME    = SL-16 R/B
OBJECT_ID      = 1988-039B
CENTER_NAME    = EARTH
REF_FRAME      = TEME
TIME_SYSTEM    = UTC
MEAN_ELEMENT_THEORY = SGP/SGP4

EPOCH          = 2026-02-18T06:01:04.653984
MEAN_MOTION    = 14.19613746
ECCENTRICITY   = .00215568
INCLINATION    = 71.0140
RA_OF_ASC_NODE = 109.6548
ARG_OF_PERICENTER = 3.6140
MEAN_ANOMALY   = 356.5136

EPHEMERIS_TYPE = 0
CLASSIFICATION_TYPE = U
NORAD_CAT_ID   = 19120
ELEMENT_SET_NO = 999
REV_AT_EPOCH   = 95562
BSTAR          = .35274243E-4
MEAN_MOTION_DOT = .27E-6
MEAN_MOTION_DDOT = 0

CCSDS_OMM_VERS = 2.0
CREATION_DATE  = 
ORIGINATOR     = 

OBJECT_NAME    = COSMOS 1953
OBJECT_ID      = 1988-050A
CENTER_NAME    = EARTH
REF_FRAME      = TEME
TIME_SYSTEM    = UTC
MEAN_ELEMENT_THEORY = SGP/SGP4

EPOCH          = 2026-02-18T07:27:49.707936
MEAN_MOTION    = 15.28138031
ECCENTRICITY   = .00113138
INCLINATION    = 82.5109
RA_OF_ASC_NODE = 177.7257
ARG_OF_PERICENTER = 187.0843
MEAN_ANOMALY   = 173.0238

EPHEMERIS_TYPE = 0
CLASSIFICATION_TYPE = U
NORAD_CAT_ID   = 19210
ELEMENT_SET_NO = 999
REV_AT_EPOCH   = 3482
BSTAR          = .34140992E-3
MEAN_MOTION_DOT = .9413E-4
MEAN_MOTION_DDOT = 0

CCSDS_OMM_VERS = 2.0
CREATION_DATE  = 
ORIGINATOR     = 

OBJECT_NAME    = SL-8 R/B
OBJECT_ID      = 1988-053B
CENTER_NAME    = EARTH
REF_FRAME      = TEME
TIME_SYSTEM    = UTC
MEAN_ELEMENT_THEORY = SGP/SGP4

EPOCH          = 2026-02-18T06:14:21.958368
MEAN_MOTION    = 14.38903619
ECCENTRICITY   = .00208274
INCLINATION    = 74.0483
RA_OF_ASC_NODE = 148.2776
ARG_OF_PERICENTER = 330.8240
MEAN_ANOMALY   = 95.4252

EPHEMERIS_TYPE = 0
CLASSIFICATION_TYPE = U
NORAD_CAT_ID   = 19257
ELEMENT_SET_NO = 999
REV_AT_EPOCH   = 97380
BSTAR          = .87315363E-4
MEAN_MOTION_DOT = .243E-5
MEAN_MOTION_DDOT = 0

CCSDS_OMM_VERS = 2.0
CREATION_DATE  = 
ORIGINATOR     = 

OBJECT_NAME    = COSMOS 1975
OBJECT_ID      = 1988-093A
CENTER_NAME    = EARTH
REF_FRAME      = TEME
TIME_SYSTEM    = UTC
MEAN_ELEMENT_THEORY = SGP/SGP4

EPOCH          = 2026-02-18T06:34:17.947776
MEAN_MOTION    = 15.27734372
ECCENTRICITY   = .00105532
INCLINATION    = 82.5222
RA_OF_ASC_NODE = 137.1667
ARG_OF_PERICENTER = 234.2292
MEAN_ANOMALY   = 125.7967

EPHEMERIS_TYPE = 0
CLASSIFICATION_TYPE = U
NORAD_CAT_ID   = 19573
ELEMENT_SET_NO = 999
REV_AT_EPOCH   = 1644
BSTAR          = .29192249E-3
MEAN_MOTION_DOT = .7953E-4
MEAN_MOTION_DDOT = 0

CCSDS_OMM_VERS = 2.0
CREATION_DATE  = 
ORIGINATOR     = 

OBJECT_NAME    = SL-14 R/B
OBJECT_ID      = 1988-093B
CENTER_NAME    = EARTH
REF_FRAME      = TEME
TIME_SYSTEM    = UTC
MEAN_ELEMENT_THEORY = SGP/SGP4

EPOCH          = 2026-02-18T03:09:46.328544
MEAN_MOTION    = 14.85632326
ECCENTRICITY   = .00223045
INCLINATION    = 82.5278
RA_OF_ASC_NODE = 60.4082
ARG_OF_PERICENTER = 102.0606
MEAN_ANOMALY   = 328.6118

EPHEMERIS_TYPE = 0
CLASSIFICATION_TYPE = U
NORAD_CAT_ID   = 19574
ELEMENT_SET_NO = 999
REV_AT_EPOCH   = 99813
BSTAR          = .48939586E-4
MEAN_MOTION_DOT = .45E-5
MEAN_MOTION_DDOT = 0

CCSDS_OMM_VERS = 2.0
CREATION_DATE  = 
ORIGINATOR     = 

OBJECT_NAME    = SL-16 R/B
OBJECT_ID      = 1988-102B
CENTER_NAME    = EARTH
REF_FRAME      = TEME
TIME_SYSTEM    = UTC
MEAN_ELEMENT_THEORY = SGP/SGP4

EPOCH          = 2026-02-17T20:16:12.550944
MEAN_MOTION    = 14.16151955
ECCENTRICITY   = .0012918
INCLINATION    = 70.9992
RA_OF_ASC_NODE = 193.2490
ARG_OF_PERICENTER = 32.9005
MEAN_ANOMALY   = 327.2920

EPHEMERIS_TYPE = 0
CLASSIFICATION_TYPE = U
NORAD_CAT_ID   = 19650
ELEMENT_SET_NO = 999
REV_AT_EPOCH   = 92408
BSTAR          = .41547E-4
MEAN_MOTION_DOT = .34E-6
MEAN_MOTION_DDOT = 0

CCSDS_OMM_VERS = 2.0
CREATION_DATE  = 
ORIGINATOR     = 

OBJECT_NAME    = INTERCOSMOS 24
OBJECT_ID      = 1989-080A
CENTER_NAME    = EARTH
REF_FRAME      = TEME
TIME_SYSTEM    = UTC
MEAN_ELEMENT_THEORY = SGP/SGP4

EPOCH          = 2026-02-18T06:19:05.683008
MEAN_MOTION    = 12.59528147
ECCENTRICITY   = .11874312
INCLINATION    = 82.6052
RA_OF_ASC_NODE = 117.0512
ARG_OF_PERICENTER = 337.9465
MEAN_ANOMALY   = 17.4315

EPHEMERIS_TYPE = 0
CLASSIFICATION_TYPE = U
NORAD_CAT_ID   = 20261
ELEMENT_SET_NO = 999
REV_AT_EPOCH   = 66435
BSTAR          = .1634891E-3
MEAN_MOTION_DOT = .559E-5
MEAN_MOTION_DDOT = 0

CCSDS_OMM_VERS = 2.0
CREATION_DATE  = 
ORIGINATOR     = 

OBJECT_NAME    = SL-14 R/B
OBJECT_ID      = 1989-080C
CENTER_NAME    = EARTH
REF_FRAME      = TEME
TIME_SYSTEM    = UTC
MEAN_ELEMENT_THEORY = SGP/SGP4

EPOCH          = 2026-02-17T09:23:04.902144
MEAN_MOTION    = 12.50466652
ECCENTRICITY   = .12296891
INCLINATION    = 82.5957
RA_OF_ASC_NODE = 186.2150
ARG_OF_PERICENTER = 231.1557
MEAN_ANOMALY   = 117.3410

EPHEMERIS_TYPE = 0
CLASSIFICATION_TYPE = U
NORAD_CAT_ID   = 20262
ELEMENT_SET_NO = 999
REV_AT_EPOCH   = 65761
BSTAR          = .15859793E-3
MEAN_MOTION_DOT = .527E-5
MEAN_MOTION_DDOT = 0

CCSDS_OMM_VERS = 2.0
CREATION_DATE  = 
ORIGINATOR     = 

OBJECT_NAME    = DELTA 1 R/B
OBJECT_ID      = 1989-089B
CENTER_NAME    = EARTH
REF_FRAME      = TEME
TIME_SYSTEM    = UTC
MEAN_ELEMENT_THEORY = SGP/SGP4

EPOCH          = 2026-02-18T04:03:57.732480
MEAN_MOTION    = 14.50646253
ECCENTRICITY   = .00689744
INCLINATION    = 97.0719
RA_OF_ASC_NODE = 259.7109
ARG_OF_PERICENTER = 183.1602
MEAN_ANOMALY   = 176.9170

EPHEMERIS_TYPE = 0
CLASSIFICATION_TYPE = U
NORAD_CAT_ID   = 20323
ELEMENT_SET_NO = 999
REV_AT_EPOCH   = 89290
BSTAR          = .88552335E-4
MEAN_MOTION_DOT = .323E-5
MEAN_MOTION_DDOT = 0

CCSDS_OMM_VERS = 2.0
CREATION_DATE  = 
ORIGINATOR     = 

OBJECT_NAME    = ARIANE 40 R/B
OBJECT_ID      = 1990-005H
CENTER_NAME    = EARTH
REF_FRAME      = TEME
TIME_SYSTEM    = UTC
MEAN_ELEMENT_THEORY = SGP/SGP4

EPOCH          = 2026-02-18T03:32:20.233824
MEAN_MOTION    = 14.39856912
ECCENTRICITY   = .00089413
INCLINATION    = 98.3127
RA_OF_ASC_NODE = 110.3868
ARG_OF_PERICENTER = 261.7688
MEAN_ANOMALY   = 98.2487

EPHEMERIS_TYPE = 0
CLASSIFICATION_TYPE = U
NORAD_CAT_ID   = 20443
ELEMENT_SET_NO = 999
REV_AT_EPOCH   = 88999
BSTAR          = .93581363E-4
MEAN_MOTION_DOT = .252E-5
MEAN_MOTION_DDOT = 0

