COSMOS 1933             
1 18958U 88020A   26049.07911486  .00003934  00000+0  19315-3 0  9996
2 18958  82.5105 270.3168 0002707 270.1793  89.9130 15.17806127 47252
SL-3 R/B                
1 19046U 88032B   26049.24357902  .00005682  00000+0  26768-3 0  9996
2 19046  97.5161  32.5714 0024495 304.5863  55.3061 15.19653317 49156
SL-16 R/B               
1 19120U 88039B   26049.25074831  .00000027  00000+0  35274-4 0  9995
2 19120  71.0140 109.6548 0021556   3.6140 356.5136 14.19613746955622
COSMOS 1953             
1 19210U 88050A   26049.31099199  .00009413  00000+0  34141-3 0  9998
2 19210  82.5109 177.7257 0011313 187.0843 173.0238 15.28138031 34829
SL-8 R/B                
1 19257U 88053B   26049.25997637  .00000243  00000+0  87315-4 0  9993
2 19257  74.0483 148.2776 0020827 330.8240  95.4252 14.38903619973804
COSMOS 1975             
1 19573U 88093A   26049.27381884  .00007953  00000+0  29192-3 0  9994
2 19573  82.5222 137.1667 0010553 234.2292 125.7967 15.27734372 16440
SL-14 R/B               
1 19574U 88093B   26049.13178621  .00000450  00000+0  48940-4 0  9991
2 19574  82.5278  60.4082 0022304 102.0606 328.6118 14.85632326998135
SL-16 R/B               
1 19650U 88102B   26048.84458971  .00000034  00000+0  41547-4 0  9997
2 19650  70.9992 193.2490 0012918  32.9005 327.2920 14.16151955924083
INTERCOSMOS 24          
1 20261U 89080A   26049.26326022  .00000559  00000+0  16349-3 0  9994
2 20261  82.6052 117.0512 1187431 337.9465  17.4315 12.59528147664354
SL-14 R/B               
1 20262U 89080C   26048.39102896  .00000527  00000+0  15860-3 0  9991
2 20262  82.5957 186.2150 1229689 231.1557 117.3410 12.50466652657613
DELTA 1 R/B             
1 20323U 89089B   26049.16941820  .00000323  00000+0  88552-4 0  9995
2 20323  97.0719 259.7109 0068974 183.1602 176.9170 14.50646253892908
ARIANE 40 R/B           
1 20443U 90005H   26049.14745641  .00000252  00000+0  93581-4 0  9998
2 20443  98.3127 110.3868 0008941 261.7688  98.2487 14.39856912889991
